IRIDIUM 159             
1 43578U 18061K   24316.49956358  .00000514  00000+0  17664-3 0  9994
2 43578  86.3924 300.2054 0002135  89.1176 271.0264 14.34216766329868
IRIDIUM 180             
1 43922U 19002A   24316.49905194  .00001285  00000+0  45150-3 0  9992
2 43922  86.3988 237.0516 0002187  82.2402 277.9042 14.34225735305470
IRIDIUM 176             
1 43923U 19002B   24316.53978970  .00004235  00000+0  66783-3 0  9993
2 43923  86.6115 237.0443 0002426  95.2652 264.8842 14.72230861313528
IRIDIUM 168             
1 43924U 19002C   24316.49271585  .00000151  00000+0  46890-4 0  9998
2 43924  86.3990 237.1153 0002246  83.9998 276.1454 14.34216029305459
IRIDIUM 173             
1 43925U 19002D   24316.54980071  .00001279  00000+0  44948-3 0  9995
2 43925  86.3991 237.0043 0002165  81.8863 278.2578 14.34219520305444
IRIDIUM 169             
1 43926U 19002E   24316.58354967  .00001386  00000+0  44675-3 0  9995
2 43926  86.4197 268.6187 0004141  89.5855 270.5818 14.38594904306466
IRIDIUM 172             
1 43927U 19002F   24316.19461835  .00001139  00000+0  39952-3 0  9994
2 43927  86.3987 237.1585 0002183  83.8442 276.3003 14.34217479305407
IRIDIUM 175             
1 43928U 19002G   24316.53440137  .00003966  00000+0  62496-3 0  9994
2 43928  86.1556 201.9158 0003210  67.8944 292.2613 14.72239367313511
